{"fetched_at":"2026-03-29T16:36:15Z","count":15609,"tles":[{"name":"STARLINK-35930","line1":"1 66599U 25270M   26087.89542668  .00034782  00000+0  12667-2 0  9999","line2":"2 66599  43.0008 307.6716 0001534 274.7432  85.3244 15.27600807 20648","category":"Starlink"}]}